COSMOS 1953             
1 19210U 88050A   16186.91520658  .00000834  00000-0  56940-4 0  9995
2 19210  82.5164   9.9633 0013905  11.4072 348.7467 15.04828451504471
SL-8 R/B                
1 19257U 88053B   16186.89776485 -.00000024  00000-0  74402-6 0  9994
2 19257  74.0490 134.9749 0019386 113.4142 272.6575 14.37316784468590
COSMOS 1975             
1 19573U 88093A   16186.83937038  .00000460  00000-0  31384-4 0  9999
2 19573  82.5209 321.4249 0015736  46.0912 314.1610 15.03745354486463
SL-14 R/B               
1 19574U 88093B   16187.31652167  .00000073  00000-0  59732-5 0  9999
2 19574  82.5334 109.3600 0021695 176.0592 302.3102 14.83160534498035
SL-16 R/B               
1 19650U 88102B   16186.73954882  .00000225  00000-0  13882-3 0  9992
2 19650  70.9994  25.6728 0014686 343.7282  16.3367 14.15741349426811
INTERCOSMOS 24          
1 20261U 89080A   16186.66406810  .00000141  00000-0  36011-4 0  9990
2 20261  82.5923 235.0457 1204860 178.0417 182.6084 12.55773569222349
SL-14 R/B               
1 20262U 89080C   16186.88284686  .00000032  00000-0  75068-5 0  9995
2 20262  82.5952 278.5154 1237163 328.3981  24.8193 12.48814526218799
DELTA 1 R/B             
1 20323U 89089B   16187.47360914  .00000016  00000-0  12989-4 0  9991
2 20323  97.0651 182.9949 0073567  91.4051 269.5575 14.48129569404545
DELTA 2 R/B(1)          
1 20453U 90008B   16186.88210096  .00000745  00000-0  46391-4 0  9990
2 20453  35.6253 108.8648 0293928 162.4967 198.6128 14.81893762396634
COSMOS 2058             
1 20465U 90010A   16187.19654335  .00000245  00000-0  18787-4 0  9992
2 20465  82.4887 221.4023 0016417  28.9336 331.2793 14.97225503433411
SL-14 R/B               
1 20466U 90010B   16186.88735998  .00000070  00000-0  58695-5 0  9992
2 20466  82.5035 337.5401 0021575  42.5520 317.7360 14.81226826405022
SL-14 R/B               
1 20511U 90018B   16186.86255638  .00000102  00000-0  10406-4 0  9990
2 20511  82.5241 277.5367 0017847 167.1880 332.0108 14.79887380420691
HST                     
1 20580U 90037B   16187.24243025  .00000468  00000-0  18079-4 0  9996
2 20580  28.4693 139.4819 0002895  46.5502  91.7649 15.08409742237840
SL-16 R/B               
1 20625U 90046B   16186.95296047 -.00000020  00000-0  14617-4 0  9994
2 20625  70.9991 157.9002 0016640 274.6036 144.3067 14.14604895348474
COSMOS 2084             
1 20663U 90055A   16187.52316523  .00000004  00000-0  18716-4 0  9997
2 20663  62.7937 304.8628 0125864  55.6538 305.6388 14.91250481408103
SL-6 R/B(2)             
1 20666U 90055D   16187.53484388 -.00000002  00000-0  17922-4 0  9993
2 20666  62.7829 224.5958 0133994  75.1264 286.4625 14.91616269409466
SL-8 R/B                
1 20775U 90078B   16186.88721647  .00001158  00000-0  57738-4 0  9999
2 20775  82.9304 332.4280 0596836 330.6602  26.2250 14.28559826299140
SL-8 R/B                
1 21088U 91006B   16186.90369714  .00000037  00000-0  22016-4 0  9991
2 21088  82.9435 278.3860 0021958 209.1683 289.0880 13.77036974277536
OKEAN-3                 
1 21397U 91039A   16186.87708256  .00000248  00000-0  21756-4 0  9998
2 21397  82.5232 108.2621 0017115 323.2287  36.7758 14.92238807357980
COSMOS 2151             
1 21422U 91042A   16187.14166312  .00000175  00000-0  14838-4 0  9995
2 21422  82.4995 216.6517 0014753  19.8338 340.3451 14.91650042356769
SL-14 R/B               
1 21423U 91042B   16186.74303521  .00000092  00000-0  92149-5 0  9996
2 21423  82.4951 286.0809 0016439 311.8614  48.1195 14.79640747351201
ERS-1                   
1 21574U 91050A   16186.87557546  .00000011  00000-0  18175-4 0  9991
2 21574  98.4152 134.4621 0031778 273.1417  86.6135 14.37501147307701
ARIANE 40 R/B           
1 21610U 91050F   16186.81370875  .00000048  00000-0  29287-4 0  9990
2 21610  98.6545 234.2628 0001995 253.4508 236.0788 14.40743418310090
INTERCOSMOS 25          
1 21819U 91086A   16187.14367208  .00000243  00000-0  39254-4 0  9995
2 21819  82.5583 271.6495 1526791 105.1971 272.2573 12.04277329 70500
SL-14 R/B               
1 21820U 91086B   16186.96993329  .00000050  00000-0  10459-4 0  9997
2 21820  82.5644 323.2743 1576642 280.2217  62.5357 11.93170060 65378
SL-8 R/B                
1 21876U 92008B   16187.10412461 -.00000019  00000-0 -35218-4 0  9990
2 21876  82.9251  15.1596 0033499 283.7793 216.0961 13.75585430223662
SL-8 R/B                
1 21938U 92020B   16186.73600890  .00000003  00000-0 -12704-4 0  9993
2 21938  82.9302 258.4055 0030546  82.2962  31.2320 13.75249281215231
SL-16 R/B               
1 22220U 92076B   16186.86248669  .00000213  00000-0  13125-3 0  9994
2 22220  71.0009  70.3405 0010768  80.5794 332.3266 14.16400011221593
SL-16 R/B               
1 22285U 92093B   16186.64093469  .00000233  00000-0  14505-3 0  9991
2 22285  71.0200 221.3398 0006150 287.7164  72.3287 14.14994863213099
COSMOS 2228             
1 22286U 92094A   16186.96073262  .00000197  00000-0  18972-4 0  9999
2 22286  82.5213 341.4205 0020378 189.8433 170.2389 14.87471430270871
SL-16 R/B               
1 22566U 93016B   16186.95055205  .00000222  00000-0  13914-3 0  9990
2 22566  71.0080  75.7869 0012047 296.4241  63.5645 14.14926456202143
COSMOS 2242             
1 22626U 93024A   16186.91264715  .00000197  00000-0  18911-4 0  9994
2 22626  82.5213   9.1549 0018869 188.9190 171.1695 14.87477181254220
SL-16 R/B               
1 22803U 93059B   16187.20372155 -.00000235  00000-0 -93564-4 0  9992
2 22803  70.9904 260.5959 0017947 201.3765 158.6611 14.16746001179133
ARIANE 40 R/B           
1 22830U 93061H   16187.51545525 -.00000040  00000-0  22766-5 0  9992
2 22830  98.8861 188.8785 0010128 215.3153 255.8422 14.31411135188654
COSMOS 2278             
1 23087U 94023A   16186.93304975 -.00000208  00000-0 -85334-4 0  9999
2 23087  71.0545   4.7366 0008517   8.4722 351.6543 14.13725342145171
SL-16 R/B               
1 23088U 94023B   16186.94582497 -.00000161  00000-0 -59149-4 0  9991
2 23088  71.0015 290.8587 0005754 270.3120  89.7343 14.14646691146166
SL-16 R/B               
1 23343U 94074B   16186.74494079 -.00000018  00000-0  51042-5 0  9992
2 23343  98.1922 213.5083 0008270 104.3028  27.2717 14.76661722165555
SL-16 R/B               
1 23405U 94077B   16186.65886620  .00000135  00000-0  93929-4 0  9999
2 23405  70.9815 226.0687 0001758 182.9943 177.1169 14.15180997116098
ERS-2                   
1 23560U 95021A   16186.90811364  .00001311  00000-0  66415-4 0  9999
2 23560  98.5147 127.8991 0005036  55.0357 305.1347 15.19157373122604
ARIANE 40+ R/B          
1 23561U 95021B   16187.57535291  .00000033  00000-0  26416-4 0  9993
2 23561  98.7708 175.1709 0006501 195.1209 274.4869 14.37748591111447
SL-16 R/B               
1 23705U 95058B   16186.94933768 -.00000231  00000-0 -94575-4 0  9997
2 23705  71.0226  37.5496 0010282 110.6973 249.5253 14.15088424 67764
SL-16 R/B               
1 24298U 96051B   16186.71331309  .00000086  00000-0  73154-4 0  9993
2 24298  70.8376  74.4840 0016044 327.5128  32.5004 14.12409820 22490
ORBVIEW 2 (SEASTAR)     
1 24883U 97037A   16187.18102530  .00000035  00000-0  28362-4 0  9997
2 24883  98.5232 294.8432 0003378  68.3697 291.7847 14.33325243  2198
SL-16 R/B               
1 25400U 98043G   16186.88543676 -.00000023  00000-0  82239-5 0  9999
2 25400  98.4394 141.1571 0008896 228.0048 132.0375 14.25384683935591
SL-16 R/B               
1 25407U 98045B   16187.16543359  .00000219  00000-0  13583-3 0  9998
2 25407  71.0117  50.6790 0007454   0.5810 359.5320 14.15746310927061
ISS (ZARYA)             
1 25544U 98067A   16187.54188633  .00002748  00000-0  47739-4 0  9996
2 25544  51.6429 326.4638 0001063  41.1670  58.6007 15.54714622  7842
SL-8 R/B                
1 25723U 99022C   16187.14873051  .00003220  00000-0  66494-4 0  9993
2 25723  48.4166 210.6373 0010675 168.6684 298.3247 15.48813665952615
CZ-4B R/B               
1 25732U 99025C   16187.57056949 -.00000041  00000-0  23530-5 0  9996
2 25732  98.9730 179.4269 0037417 359.6967 106.8641 14.17611553887522
OKEAN-O                 
1 25860U 99039A   16187.48939972  .00000051  00000-0  14909-4 0  9998
2 25860  98.1449 162.4984 0001562 109.0754 251.0624 14.76370506912676
SL-16 R/B               
1 25861U 99039B   16186.88415213  .00000021  00000-0  10232-4 0  9991
2 25861  98.0549 150.9479 0016950 117.9859 268.7626 14.78328912914461
TERRA                   
1 25994U 99068A   16187.21834828  .00000052  00000-0  21533-4 0  9995
2 25994  98.2091 261.2640 0001450  88.5391 271.5976 14.57112786880145
SL-14 R/B               
1 26874U 01032B   16187.22024659  .00016972  00000-0  83622-4 0  9996
2 26874  82.4605 262.1036 0008275 129.7876 230.4122 15.81900429838491
ENVISAT                 
1 27386U 02009A   16187.42544784 -.00000016  00000-0  86503-5 0  9993
2 27386  98.2821 240.1919 0001175  88.7007 271.4313 14.37869941751240
IDEFIX & ARIANE 42P R/B 
1 27422U 02021B   16187.55464786 -.00000024  00000-0  66444-5 0  9996
2 27422  98.2295 201.0633 0012299 178.0271 182.0963 14.29246115737166
AQUA                    
1 27424U 02022A   16187.53451317  .00000066  00000-0  24654-4 0  9994
2 27424  98.1999 127.7924 0002336  93.6508  26.3441 14.57117100753791
CZ-4B R/B               
1 27432U 02024C   16186.95070625 -.00000024  00000-0  11347-4 0  9999
2 27432  98.9376 153.4958 0049535 296.1168  99.2458 14.14018933729724
MIDORI II (ADEOS-II)    
1 27597U 02056A   16187.52432835  .00000028  00000-0  28280-4 0  9992
2 27597  98.3227 166.7568 0000336  78.2923 281.8296 14.27219951705970
H-2A R/B                
1 27601U 02056E   16186.80575178  .00000048  00000-0  33038-4 0  9995
2 27601  98.4178 259.7957 0071126 244.4016 221.9964 14.31721058708108
CZ-4B R/B               
1 28059U 03049C   16186.76288515 -.00000020  00000-0  73613-5 0  9992
2 28059  98.6095  58.7964 0049301 225.4303 181.5354 14.52447969673259
